STARLINK-31875          
1 59674U 24084W   26068.29206487 -.00000675  00000+0 -15010-4 0  9999
2 59674  43.0042  40.4650 0001101 280.4171  79.6557 15.27574094104357
FLOCK 4G-1              
1 62666U 25009BK  26068.75951132  .00013534  00000+0  50654-3 0  9995
2 62666  97.4059 151.3158 0003180 323.1401  36.9619 15.27421081 63725
